{"type": "FeatureCollection", "features": [{"type": "Feature", "properties": {"norad_id": 28890, "name": "BEIJING 1", "group": "dmc", "lat": -28.637090783693576, "lon": -79.48910018744189, "alt_km": 680.1605951739302, "timestamp": "2025-12-03T13:52:09.232153+00:00", "meta": {"OBJECT_NAME": "BEIJING 1", "OBJECT_ID": "2005-043A", "EPOCH": "2025-12-03T07:59:42.764640", "MEAN_MOTION": 14.63351486, "ECCENTRICITY": 0.0014834, "INCLINATION": 98.265, "RA_OF_ASC_NODE": 104.8182, "ARG_OF_PERICENTER": 169.9541, "MEAN_ANOMALY": 190.196, "EPHEMERIS_TYPE": 0, "CLASSIFICATION_TYPE": "U", "NORAD_CAT_ID": 28890, "ELEMENT_SET_NO": 999, "REV_AT_EPOCH": 7200, "BSTAR": 0.00013740809, "MEAN_MOTION_DOT": 6.62e-06, "MEAN_MOTION_DDOT": 0}, "tle": {"line1": "1 28890U 05043A   25337.33313385  .00000662  00000+0  13741-3 0  9990", "line2": "2 28890  98.2650 104.8182 0014834 169.9541 190.1960 14.63351486 72004"}}, "geometry": {"type": "Point", "coordinates": [-79.48910018744189, -28.637090783693576]}}, {"type": "Feature", "properties": {"norad_id": 33320, "name": "HUANJING 1A (HJ-1A)", "group": "dmc", "lat": -61.80181438263724, "lon": -19.21505951220713, "alt_km": 634.3283843420259, "timestamp": "2025-12-03T13:52:09.232179+00:00", "meta": {"OBJECT_NAME": "HUANJING 1A (HJ-1A)", "OBJECT_ID": "2008-041A", "EPOCH": "2025-12-03T07:40:33.881376", "MEAN_MOTION": 14.8334559, "ECCENTRICITY": 0.00206513, "INCLINATION": 97.6536, "RA_OF_ASC_NODE": 326.0124, "ARG_OF_PERICENTER": 63.5632, "MEAN_ANOMALY": 296.7698, "EPHEMERIS_TYPE": 0, "CLASSIFICATION_TYPE": "U", "NORAD_CAT_ID": 33320, "ELEMENT_SET_NO": 999, "REV_AT_EPOCH": 92936, "BSTAR": 0.00027120367, "MEAN_MOTION_DOT": 2.179e-05, "MEAN_MOTION_DDOT": 0}, "tle": {"line1": "1 33320U 08041A   25337.31983659  .00002179  00000+0  27120-3 0  9991", "line2": "2 33320  97.6536 326.0124 0020651  63.5632 296.7698 14.83345590929364"}}, "geometry": {"type": "Point", "coordinates": [-19.21505951220713, -61.80181438263724]}}, {"type": "Feature", "properties": {"norad_id": 33321, "name": "HUANJING 1B (HJ-1B)", "group": "dmc", "lat": 2.110702930922799, "lon": 150.26395379824436, "alt_km": 615.4333668593936, "timestamp": "2025-12-03T13:52:09.232194+00:00", "meta": {"OBJECT_NAME": "HUANJING 1B (HJ-1B)", "OBJECT_ID": "2008-041B", "EPOCH": "2025-12-03T08:12:54.611136", "MEAN_MOTION": 14.8278147, "ECCENTRICITY": 0.00381591, "INCLINATION": 97.6396, "RA_OF_ASC_NODE": 329.7554, "ARG_OF_PERICENTER": 105.4599, "MEAN_ANOMALY": 255.0835, "EPHEMERIS_TYPE": 0, "CLASSIFICATION_TYPE": "U", "NORAD_CAT_ID": 33321, "ELEMENT_SET_NO": 999, "REV_AT_EPOCH": 92938, "BSTAR": 0.000216911, "MEAN_MOTION_DOT": 1.724e-05, "MEAN_MOTION_DDOT": 0}, "tle": {"line1": "1 33321U 08041B   25337.34229874  .00001724  00000+0  21691-3 0  9999", "line2": "2 33321  97.6396 329.7554 0038159 105.4599 255.0835 14.82781470929389"}}, "geometry": {"type": "Point", "coordinates": [150.26395379824436, 2.110702930922799]}}, {"type": "Feature", "properties": {"norad_id": 33446, "name": "YAOGAN-4", "group": "dmc", "lat": 81.29597405139431, "lon": 153.13160380811772, "alt_km": 615.2533350023132, "timestamp": "2025-12-03T13:52:09.232207+00:00", "meta": {"OBJECT_NAME": "YAOGAN-4", "OBJECT_ID": "2008-061A", "EPOCH": "2025-12-03T06:58:13.276416", "MEAN_MOTION": 14.82633768, "ECCENTRICITY": 0.00144144, "INCLINATION": 97.917, "RA_OF_ASC_NODE": 267.4833, "ARG_OF_PERICENTER": 354.9105, "MEAN_ANOMALY": 5.1959, "EPHEMERIS_TYPE": 0, "CLASSIFICATION_TYPE": "U", "NORAD_CAT_ID": 33446, "ELEMENT_SET_NO": 999, "REV_AT_EPOCH": 91663, "BSTAR": 0.0002872803, "MEAN_MOTION_DOT": 2.264e-05, "MEAN_MOTION_DDOT": 0}, "tle": {"line1": "1 33446U 08061A   25337.29043144  .00002264  00000+0  28728-3 0  9995", "line2": "2 33446  97.9170 267.4833 0014414 354.9105   5.1959 14.82633768916631"}}, "geometry": {"type": "Point", "coordinates": [153.13160380811772, 81.29597405139431]}}, {"type": "Feature", "properties": {"norad_id": 35681, "name": "DEIMOS-1", "group": "dmc", "lat": 61.340469945627085, "lon": -27.031879302357627, "alt_km": 637.6706927179512, "timestamp": "2025-12-03T13:52:09.232218+00:00", "meta": {"OBJECT_NAME": "DEIMOS-1", "OBJECT_ID": "2009-041A", "EPOCH": "2025-12-03T08:27:12.132864", "MEAN_MOTION": 14.74929048, "ECCENTRICITY": 0.00026756, "INCLINATION": 97.7146, "RA_OF_ASC_NODE": 138.3931, "ARG_OF_PERICENTER": 96.9204, "MEAN_ANOMALY": 263.231, "EPHEMERIS_TYPE": 0, "CLASSIFICATION_TYPE": "U", "NORAD_CAT_ID": 35681, "ELEMENT_SET_NO": 999, "REV_AT_EPOCH": 87801, "BSTAR": 0.00016892482, "MEAN_MOTION_DOT": 1.087e-05, "MEAN_MOTION_DDOT": 0}, "tle": {"line1": "1 35681U 09041A   25337.35222376  .00001087  00000+0  16892-3 0  9991", "line2": "2 35681  97.7146 138.3931 0002675  96.9204 263.2310 14.74929048878016"}}, "geometry": {"type": "Point", "coordinates": [-27.031879302357627, 61.340469945627085]}}, {"type": "Feature", "properties": {"norad_id": 35683, "name": "UK-DMC 2", "group": "dmc", "lat": 67.88051877972804, "lon": -47.40253454862865, "alt_km": 635.7898112023795, "timestamp": "2025-12-03T13:52:09.232229+00:00", "meta": {"OBJECT_NAME": "UK-DMC 2", "OBJECT_ID": "2009-041C", "EPOCH": "2025-12-03T08:29:13.281216", "MEAN_MOTION": 14.7558777, "ECCENTRICITY": 0.00012869, "INCLINATION": 97.8557, "RA_OF_ASC_NODE": 112.522, "ARG_OF_PERICENTER": 102.657, "MEAN_ANOMALY": 257.4784, "EPHEMERIS_TYPE": 0, "CLASSIFICATION_TYPE": "U", "NORAD_CAT_ID": 35683, "ELEMENT_SET_NO": 999, "REV_AT_EPOCH": 87768, "BSTAR": 0.00023708324, "MEAN_MOTION_DOT": 1.568e-05, "MEAN_MOTION_DDOT": 0}, "tle": {"line1": "1 35683U 09041C   25337.35362594  .00001568  00000+0  23708-3 0  9998", "line2": "2 35683  97.8557 112.5220 0001286 102.6570 257.4784 14.75587770877683"}}, "geometry": {"type": "Point", "coordinates": [-47.40253454862865, 67.88051877972804]}}, {"type": "Feature", "properties": {"norad_id": 40715, "name": "DMC3-FM1", "group": "dmc", "lat": -16.268913899155642, "lon": 22.849719858411277, "alt_km": 620.6166092894355, "timestamp": "2025-12-03T13:52:09.232240+00:00", "meta": {"OBJECT_NAME": "DMC3-FM1", "OBJECT_ID": "2015-032A", "EPOCH": "2025-12-03T08:08:16.696896", "MEAN_MOTION": 14.85413502, "ECCENTRICITY": 0.00053349, "INCLINATION": 97.67, "RA_OF_ASC_NODE": 204.8736, "ARG_OF_PERICENTER": 354.5827, "MEAN_ANOMALY": 5.533, "EPHEMERIS_TYPE": 0, "CLASSIFICATION_TYPE": "U", "NORAD_CAT_ID": 40715, "ELEMENT_SET_NO": 999, "REV_AT_EPOCH": 56083, "BSTAR": 0.00015196793, "MEAN_MOTION_DOT": 1.258e-05, "MEAN_MOTION_DDOT": 0}, "tle": {"line1": "1 40715U 15032A   25337.33908214  .00001258  00000+0  15197-3 0  9999", "line2": "2 40715  97.6700 204.8736 0005334 354.5827   5.5330 14.85413502560838"}}, "geometry": {"type": "Point", "coordinates": [22.849719858411277, -16.268913899155642]}}, {"type": "Feature", "properties": {"norad_id": 40716, "name": "DMC3-FM2", "group": "dmc", "lat": 74.1461329764047, "lon": 178.1887796633848, "alt_km": 604.3510425037512, "timestamp": "2025-12-03T13:52:09.232251+00:00", "meta": {"OBJECT_NAME": "DMC3-FM2", "OBJECT_ID": "2015-032B", "EPOCH": "2025-12-03T08:40:41.281824", "MEAN_MOTION": 14.8541487, "ECCENTRICITY": 0.00059844, "INCLINATION": 97.6756, "RA_OF_ASC_NODE": 206.3325, "ARG_OF_PERICENTER": 358.6428, "MEAN_ANOMALY": 1.477, "EPHEMERIS_TYPE": 0, "CLASSIFICATION_TYPE": "U", "NORAD_CAT_ID": 40716, "ELEMENT_SET_NO": 999, "REV_AT_EPOCH": 56083, "BSTAR": 0.00015465087, "MEAN_MOTION_DOT": 1.281e-05, "MEAN_MOTION_DDOT": 0}, "tle": {"line1": "1 40716U 15032B   25337.36158891  .00001281  00000+0  15465-3 0  9995", "line2": "2 40716  97.6756 206.3325 0005984 358.6428   1.4770 14.85414870560836"}}, "geometry": {"type": "Point", "coordinates": [178.1887796633848, 74.1461329764047]}}, {"type": "Feature", "properties": {"norad_id": 40717, "name": "DMC3-FM3", "group": "dmc", "lat": -38.93018074423615, "lon": -145.5734150777145, "alt_km": 615.906129376589, "timestamp": "2025-12-03T13:52:09.232262+00:00", "meta": {"OBJECT_NAME": "DMC3-FM3", "OBJECT_ID": "2015-032C", "EPOCH": "2025-12-03T07:34:44.503968", "MEAN_MOTION": 14.85408357, "ECCENTRICITY": 0.00053501, "INCLINATION": 97.6811, "RA_OF_ASC_NODE": 207.9151, "ARG_OF_PERICENTER": 0.9812, "MEAN_ANOMALY": 359.1413, "EPHEMERIS_TYPE": 0, "CLASSIFICATION_TYPE": "U", "NORAD_CAT_ID": 40717, "ELEMENT_SET_NO": 999, "REV_AT_EPOCH": 56083, "BSTAR": 0.0001247489, "MEAN_MOTION_DOT": 1.023e-05, "MEAN_MOTION_DDOT": 0}, "tle": {"line1": "1 40717U 15032C   25337.31579287  .00001023  00000+0  12475-3 0  9999", "line2": "2 40717  97.6811 207.9151 0005350   0.9812 359.1413 14.85408357560834"}}, "geometry": {"type": "Point", "coordinates": [-145.5734150777145, -38.93018074423615]}}]}